[{"OBJECT_NAME":"STARLINK-31007","OBJECT_ID":"2024-020P","EPOCH":"2026-03-09T23:19:18.078528","MEAN_MOTION":15.30200907,"ECCENTRICITY":0.00010219,"INCLINATION":53.1604,"RA_OF_ASC_NODE":321.1552,"ARG_OF_PERICENTER":107.3148,"MEAN_ANOMALY":252.7964,"EPHEMERIS_TYPE":0,"CLASSIFICATION_TYPE":"U","NORAD_CAT_ID":58889,"ELEMENT_SET_NO":999,"REV_AT_EPOCH":11811,"BSTAR":0.00038023266,"MEAN_MOTION_DOT":0.00010919,"MEAN_MOTION_DDOT":0},{"OBJECT_NAME":"TOMORROW-S4","OBJECT_ID":"2024-247K","EPOCH":"2026-03-09T12:47:35.836224","MEAN_MOTION":15.27717249,"ECCENTRICITY":0.00044343,"INCLINATION":44.9818,"RA_OF_ASC_NODE":117.9996,"ARG_OF_PERICENTER":210.4078,"MEAN_ANOMALY":149.6548,"EPHEMERIS_TYPE":0,"CLASSIFICATION_TYPE":"U","NORAD_CAT_ID":62386,"ELEMENT_SET_NO":999,"REV_AT_EPOCH":6770,"BSTAR":0.00046927249,"MEAN_MOTION_DOT":0.00012677,"MEAN_MOTION_DDOT":0}]
